[{"OBJECT_NAME":"STARLINK-4107","OBJECT_ID":"2022-086AX","EPOCH":"2026-03-09T14:03:01.319616","MEAN_MOTION":15.08839066,"ECCENTRICITY":0.0001371,"INCLINATION":53.2173,"RA_OF_ASC_NODE":184.5907,"ARG_OF_PERICENTER":80.5395,"MEAN_ANOMALY":279.5752,"EPHEMERIS_TYPE":0,"CLASSIFICATION_TYPE":"U","NORAD_CAT_ID":53287,"ELEMENT_SET_NO":999,"REV_AT_EPOCH":20117,"BSTAR":3.3589e-5,"MEAN_MOTION_DOT":2.47e-6,"MEAN_MOTION_DDOT":0},{"OBJECT_NAME":"NEONSAT-1A","OBJECT_ID":"2026-019A","EPOCH":"2026-03-09T21:53:31.879392","MEAN_MOTION":15.0780294,"ECCENTRICITY":0.00137261,"INCLINATION":97.411,"RA_OF_ASC_NODE":192.4819,"ARG_OF_PERICENTER":167.4713,"MEAN_ANOMALY":192.686,"EPHEMERIS_TYPE":0,"CLASSIFICATION_TYPE":"U","NORAD_CAT_ID":67614,"ELEMENT_SET_NO":999,"REV_AT_EPOCH":585,"BSTAR":0.00027109929,"MEAN_MOTION_DOT":4.096e-5,"MEAN_MOTION_DDOT":0}]
